[{"OBJECT_NAME":"TOMORROW-S1","OBJECT_ID":"2024-149M","EPOCH":"2026-03-09T17:23:34.533600","MEAN_MOTION":15.31198363,"ECCENTRICITY":0.00018188,"INCLINATION":97.3791,"RA_OF_ASC_NODE":149.6044,"ARG_OF_PERICENTER":207.204,"MEAN_ANOMALY":152.9106,"EPHEMERIS_TYPE":0,"CLASSIFICATION_TYPE":"U","NORAD_CAT_ID":60479,"ELEMENT_SET_NO":999,"REV_AT_EPOCH":8686,"BSTAR":0.0002885603,"MEAN_MOTION_DOT":8.62e-5,"MEAN_MOTION_DDOT":0},{"OBJECT_NAME":"STARLINK-31844","OBJECT_ID":"2024-150A","EPOCH":"2026-03-09T20:56:25.863648","MEAN_MOTION":15.30224977,"ECCENTRICITY":7.604e-5,"INCLINATION":53.1602,"RA_OF_ASC_NODE":305.8736,"ARG_OF_PERICENTER":93.5651,"MEAN_ANOMALY":266.5437,"EPHEMERIS_TYPE":0,"CLASSIFICATION_TYPE":"U","NORAD_CAT_ID":60583,"ELEMENT_SET_NO":999,"REV_AT_EPOCH":8807,"BSTAR":-0.00017950143,"MEAN_MOTION_DOT":-5.675e-5,"MEAN_MOTION_DDOT":0}]
