TOMORROW-S1             
1 60479U 24149M   26068.72470524  .00008620  00000+0  28856-3 0  9996
2 60479  97.3791 149.6044 0001819 207.2040 152.9106 15.31198362 86867
STARLINK-31844          
1 60583U 24150A   26068.87252156 -.00005675  00000+0 -17950-3 0  9991
2 60583  53.1602 305.8736 0000760  93.5651 266.5437 15.30224977 88071
